start=new Date('2022-11-06T00:00:00.000Z').valueOf();
sats=[{"RCS_SIZE":"LARGE","TIME_SYSTEM":"UTC","GP_ID":"217015735","MEAN_MOTION":"15.06384802","CENTER_NAME":"EARTH","SEMIMAJOR_AXIS":"6925.395","RA_OF_ASC_NODE":"322.6764","MEAN_ELEMENT_THEORY":"SGP4","MEAN_ANOMALY":"319.8778","TLE_LINE2":"2 45100  53.0549 322.6764 0002105  40.2366 319.8778 15.06384802153163","BSTAR":"-0.00024863000000","OBJECT_NAME":"STARLINK-1193","ARG_OF_PERICENTER":"40.2366","REV_AT_EPOCH":"15316","MEAN_MOTION_DDOT":"0.0000000000000","ECCENTRICITY":"0.00021050","FILE":"3646512","LAUNCH_DATE":"2020-01-29","PERIAPSIS":"545.802","REF_FRAME":"TEME","COUNTRY_CODE":"US","OBJECT_TYPE":"PAYLOAD","OBJECT_ID":"2020-006BJ","TLE_LINE1":"1 45100U 20006BJ  22309.85623869 -.00003982  00000-0 -24863-3 0  9991","SITE":"AFETR","APOAPSIS":"548.718","CLASSIFICATION_TYPE":"U","MEAN_MOTION_DOT":"-0.00003982","ELEMENT_SET_NO":"999","EPHEMERIS_TYPE":"0","PERIOD":"95.593","NORAD_CAT_ID":"45100","DECAY_DATE":null,"EPOCH":"2022-11-05T20:32:59.022816","INCLINATION":"53.0549"},{"BSTAR":"-0.00029323000000","TLE_LINE2":"2 45101  53.0553 324.1577 0001952  42.6570 317.4570 15.06383263153119","OBJECT_NAME":"STARLINK-1194","ARG_OF_PERICENTER":"42.6570","REV_AT_EPOCH":"15311","MEAN_MOTION_DDOT":"0.0000000000000","ECCENTRICITY":"0.00019520","RCS_SIZE":"LARGE","TIME_SYSTEM":"UTC","GP_ID":"216959742","MEAN_MOTION":"15.06383263","CENTER_NAME":"EARTH","SEMIMAJOR_AXIS":"6925.400","MEAN_ELEMENT_THEORY":"SGP4","RA_OF_ASC_NODE":"324.1577","MEAN_ANOMALY":"317.4570","OBJECT_TYPE":"PAYLOAD","OBJECT_ID":"2020-006BK","FILE":"3645109","LAUNCH_DATE":"2020-01-29","PERIAPSIS":"545.913","REF_FRAME":"TEME","COUNTRY_CODE":"US","CLASSIFICATION_TYPE":"U","TLE_LINE1":"1 45101U 20006BK  22309.51987490 -.00004645  00000-0 -29323-3 0  9991","APOAPSIS":"548.617","SITE":"AFETR","NORAD_CAT_ID":"45101","DECAY_DATE":null,"EPOCH":"2022-11-05T12:28:37.191360","INCLINATION":"53.0553","MEAN_MOTION_DOT":"-0.00004645","ELEMENT_SET_NO":"999","EPHEMERIS_TYPE":"0","PERIOD":"95.593"},{"SITE":"AFETR","TLE_LINE1":"1 45102U 20006BL  22309.74197658 -.00001827  00000-0 -10381-3 0  9999","APOAPSIS":"548.681","CLASSIFICATION_TYPE":"U","MEAN_MOTION_DOT":"-0.00001827","EPHEMERIS_TYPE":"0","ELEMENT_SET_NO":"999","PERIOD":"95.593","NORAD_CAT_ID":"45102","DECAY_DATE":null,"EPOCH":"2022-11-05T17:48:26.776512","INCLINATION":"53.0548","RCS_SIZE":"LARGE","TIME_SYSTEM":"UTC","MEAN_MOTION":"15.06389056","GP_ID":"217014733","CENTER_NAME":"EARTH","SEMIMAJOR_AXIS":"6925.382","RA_OF_ASC_NODE":"323.1767","MEAN_ELEMENT_THEORY":"SGP4","MEAN_ANOMALY":"307.1301","TLE_LINE2":"2 45102  53.0548 323.1767 0002071  52.9877 307.1301 15.06389056153148","BSTAR":"-0.00010381000000","OBJECT_NAME":"STARLINK-1195","ARG_OF_PERICENTER":"52.9877","REV_AT_EPOCH":"15314","MEAN_MOTION_DDOT":"0.0000000000000","ECCENTRICITY":"0.00020710","FILE":"3646512","LAUNCH_DATE":"2020-01-29","PERIAPSIS":"545.813","REF_FRAME":"TEME","COUNTRY_CODE":"US","OBJECT_TYPE":"PAYLOAD","OBJECT_ID":"2020-006BL"},{"TLE_LINE1":"1 45103U 20006BM  22309.77421451 -.00001635  00000-0 -90937-4 0  9997","SITE":"AFETR","APOAPSIS":"548.713","CLASSIFICATION_TYPE":"U","MEAN_MOTION_DOT":"-0.00001635","EPHEMERIS_TYPE":"0","ELEMENT_SET_NO":"999","PERIOD":"95.593","DECAY_DATE":null,"NORAD_CAT_ID":"45103","EPOCH":"2022-11-05T18:34:52.133664","INCLINATION":"53.0553","TIME_SYSTEM":"UTC","RCS_SIZE":"LARGE","GP_ID":"217015485","MEAN_MOTION":"15.06379039","SEMIMAJOR_AXIS":"6925.413","CENTER_NAME":"EARTH","MEAN_ANOMALY":"303.1089","RA_OF_ASC_NODE":"323.0192","MEAN_ELEMENT_THEORY":"SGP4","OBJECT_NAME":"STARLINK-1196","BSTAR":"-0.00009093700000","TLE_LINE2":"2 45103  53.0553 323.0192 0002072  57.0099 303.1089 15.06379039153159","ARG_OF_PERICENTER":"57.0099","MEAN_MOTION_DDOT":"0.0000000000000","REV_AT_EPOCH":"15315","ECCENTRICITY":"0.00020720","FILE":"3646512","LAUNCH_DATE":"2020-01-29","PERIAPSIS":"545.843","COUNTRY_CODE":"US","REF_FRAME":"TEME","OBJECT_TYPE":"PAYLOAD","OBJECT_ID":"2020-006BM"},{"PERIOD":"95.592","MEAN_MOTION_DOT":"0.00000426","ELEMENT_SET_NO":"999","EPHEMERIS_TYPE":"0","INCLINATION":"53.0528","NORAD_CAT_ID":"45178","DECAY_DATE":null,"EPOCH":"2022-11-05T18:14:58.509888","APOAPSIS":"547.897","TLE_LINE1":"1 45178U 20012A   22309.76039942  .00000426  00000-0  47505-4 0  9993","SITE":"AFETR","CLASSIFICATION_TYPE":"U","PERIAPSIS":"546.545","REF_FRAME":"TEME","COUNTRY_CODE":"US","FILE":"3646512","LAUNCH_DATE":"2020-02-17","OBJECT_ID":"2020-012A","OBJECT_TYPE":"PAYLOAD","CENTER_NAME":"EARTH","SEMIMAJOR_AXIS":"6925.356","RA_OF_ASC_NODE":"123.0986","MEAN_ELEMENT_THEORY":"SGP4","MEAN_ANOMALY":"245.0696","TIME_SYSTEM":"UTC","RCS_SIZE":"LARGE","GP_ID":"217014490","MEAN_MOTION":"15.06397547","REV_AT_EPOCH":"15090","MEAN_MOTION_DDOT":"0.0000000000000","ECCENTRICITY":"0.00009760","BSTAR":"0.00004750500000","TLE_LINE2":"2 45178  53.0528 123.0986 0000976 115.0394 245.0696 15.06397547150908","OBJECT_NAME":"STARLINK-1138","ARG_OF_PERICENTER":"115.0394"},{"CLASSIFICATION_TYPE":"U","TLE_LINE1":"1 45179U 20012B   22309.76314450  .00000971  00000-0  84048-4 0  9992","APOAPSIS":"548.256","SITE":"AFETR","INCLINATION":"53.0554","EPOCH":"2022-11-05T18:18:55.684800","DECAY_DATE":null,"NORAD_CAT_ID":"45179","PERIOD":"95.592","ELEMENT_SET_NO":"999","EPHEMERIS_TYPE":"0","MEAN_MOTION_DOT":"0.00000971","ECCENTRICITY":"0.00014980","MEAN_MOTION_DDOT":"0.0000000000000","REV_AT_EPOCH":"15096","ARG_OF_PERICENTER":"96.5562","OBJECT_NAME":"STARLINK-1143","BSTAR":"0.00008404800000","TLE_LINE2":"2 45179  53.0554 123.0810 0001498  96.5562 263.5598 15.06398288150969","MEAN_ANOMALY":"263.5598","MEAN_ELEMENT_THEORY":"SGP4","RA_OF_ASC_NODE":"123.0810","SEMIMAJOR_AXIS":"6925.354","CENTER_NAME":"EARTH","MEAN_MOTION":"15.06398288","GP_ID":"217014740","TIME_SYSTEM":"UTC","RCS_SIZE":"LARGE","OBJECT_ID":"2020-012B","OBJECT_TYPE":"PAYLOAD","COUNTRY_CODE":"US","REF_FRAME":"TEME","PERIAPSIS":"546.181","LAUNCH_DATE":"2020-02-17","FILE":"3646512"},{"PERIOD":"95.100","MEAN_MOTION_DOT":"0.00037313","ELEMENT_SET_NO":"999","EPHEMERIS_TYPE":"0","INCLINATION":"53.0494","DECAY_DATE":null,"NORAD_CAT_ID":"45180","EPOCH":"2022-11-05T18:20:04.981056","SITE":"AFETR","TLE_LINE1":"1 45180U 20012C   22309.76394654  .00037313  00000-0  20265-2 0  9997","APOAPSIS":"524.500","CLASSIFICATION_TYPE":"U","PERIAPSIS":"522.380","COUNTRY_CODE":"US","REF_FRAME":"TEME","FILE":"3646512","LAUNCH_DATE":"2020-02-17","OBJECT_ID":"2020-012C","OBJECT_TYPE":"PAYLOAD","SEMIMAJOR_AXIS":"6901.575","CENTER_NAME":"EARTH","MEAN_ANOMALY":"235.4478","RA_OF_ASC_NODE":"116.8472","MEAN_ELEMENT_THEORY":"SGP4","TIME_SYSTEM":"UTC","RCS_SIZE":"LARGE","MEAN_MOTION":"15.14190126","GP_ID":"217015492","MEAN_MOTION_DDOT":"0.0000000000000","REV_AT_EPOCH":"15105","ECCENTRICITY":"0.00015360","OBJECT_NAME":"STARLINK-1192","BSTAR":"0.00202650000000","TLE_LINE2":"2 45180  53.0494 116.8472 0001536 124.6659 235.4478 15.14190126151057","ARG_OF_PERICENTER":"124.6659"},{"CLASSIFICATION_TYPE":"U","TLE_LINE1":"1 45181U 20012D   22309.74935099  .00000383  00000-0  44643-4 0  9995","SITE":"AFETR","APOAPSIS":"548.312","INCLINATION":"53.0524","EPOCH":"2022-11-05T17:59:03.925536","NORAD_CAT_ID":"45181","DECAY_DATE":null,"PERIOD":"95.592","EPHEMERIS_TYPE":"0","ELEMENT_SET_NO":"999","MEAN_MOTION_DOT":"0.00000383","ECCENTRICITY":"0.00015620","REV_AT_EPOCH":"15096","MEAN_MOTION_DDOT":"0.0000000000000","ARG_OF_PERICENTER":"98.7253","TLE_LINE2":"2 45181  53.0524 123.1500 0001562  98.7253 261.3912 15.06394503150961","BSTAR":"0.00004464300000","OBJECT_NAME":"STARLINK-1200","RA_OF_ASC_NODE":"123.1500","MEAN_ELEMENT_THEORY":"SGP4","MEAN_ANOMALY":"261.3912","CENTER_NAME":"EARTH","SEMIMAJOR_AXIS":"6925.365","MEAN_MOTION":"15.06394503","GP_ID":"217016241","RCS_SIZE":"LARGE","TIME_SYSTEM":"UTC","OBJECT_ID":"2020-012D","OBJECT_TYPE":"PAYLOAD","REF_FRAME":"TEME","COUNTRY_CODE":"US","PERIAPSIS":"546.149","LAUNCH_DATE":"2020-02-17","FILE":"3646512"},{"TLE_LINE2":"2 45182  53.0552 103.3387 0001237 105.3086 254.8040 15.06395364151083","BSTAR":"-0.00010104000000","OBJECT_NAME":"STARLINK-1201","ARG_OF_PERICENTER":"105.3086","REV_AT_EPOCH":"15108","MEAN_MOTION_DDOT":"0.0000000000000","ECCENTRICITY":"0.00012370","TIME_SYSTEM":"UTC","RCS_SIZE":"LARGE","MEAN_MOTION":"15.06395364","GP_ID":"217014990","CENTER_NAME":"EARTH","SEMIMAJOR_AXIS":"6925.363","RA_OF_ASC_NODE":"103.3387","MEAN_ELEMENT_THEORY":"SGP4","MEAN_ANOMALY":"254.8040","OBJECT_TYPE":"PAYLOAD","OBJECT_ID":"2020-012E","FILE":"3646512","LAUNCH_DATE":"2020-02-17","PERIAPSIS":"546.371","REF_FRAME":"TEME","COUNTRY_CODE":"US","CLASSIFICATION_TYPE":"U","APOAPSIS":"548.084","TLE_LINE1":"1 45182U 20012E   22309.70327027 -.00001786  00000-0 -10104-3 0  9992","SITE":"AFETR","NORAD_CAT_ID":"45182","DECAY_DATE":null,"EPOCH":"2022-11-05T16:52:42.551328","INCLINATION":"53.0552","MEAN_MOTION_DOT":"-0.00001786","ELEMENT_SET_NO":"999","EPHEMERIS_TYPE":"0","PERIOD":"95.592"},{"PERIAPSIS":"546.390","REF_FRAME":"TEME","COUNTRY_CODE":"US","FILE":"3646512","LAUNCH_DATE":"2020-02-17","OBJECT_ID":"2020-012F","OBJECT_TYPE":"PAYLOAD","CENTER_NAME":"EARTH","SEMIMAJOR_AXIS":"6925.372","MEAN_ELEMENT_THEORY":"SGP4","RA_OF_ASC_NODE":"122.9811","MEAN_ANOMALY":"260.6584","TIME_SYSTEM":"UTC","RCS_SIZE":"LARGE","MEAN_MOTION":"15.06392199","GP_ID":"217015240","REV_AT_EPOCH":"15097","MEAN_MOTION_DDOT":"0.0000000000000","ECCENTRICITY":"0.00012230","TLE_LINE2":"2 45183  53.0514 122.9811 0001223  99.4544 260.6584 15.06392199150976","BSTAR":"-0.00000734780000","OBJECT_NAME":"STARLINK-1202","ARG_OF_PERICENTER":"99.4544","PERIOD":"95.593","MEAN_MOTION_DOT":"-0.00000391","ELEMENT_SET_NO":"999","EPHEMERIS_TYPE":"0","INCLINATION":"53.0514","NORAD_CAT_ID":"45183","DECAY_DATE":null,"EPOCH":"2022-11-05T18:52:08.469696","TLE_LINE1":"1 45183U 20012F   22309.78620914 -.00000391  00000-0 -73478-5 0  9998","APOAPSIS":"548.084","SITE":"AFETR","CLASSIFICATION_TYPE":"U"}];
